{
  "type": "FeatureCollection",
  "features": [
    {
      "type": "Feature",
      "properties": {
        "norad_id": 45358,
        "name": "COSMOS 2545 (760)",
        "group": "gnss",
        "lat": 63.666519586327965,
        "lon": 33.943270538234366,
        "alt_km": 19152.000320142823,
        "timestamp": "2025-12-08T19:31:49.056095+00:00",
        "meta_object_name": "COSMOS 2545 (760)",
        "meta_object_id": "2020-018A",
        "meta_epoch": "2025-12-08T05:39:23.903712",
        "meta_mean_motion": 2.13102411,
        "meta_eccentricity": 0.00117234,
        "meta_inclination": 64.4721,
        "meta_ra_of_asc_node": 319.1278,
        "meta_arg_of_pericenter": 249.0767,
        "meta_mean_anomaly": 110.7922,
        "meta_ephemeris_type": 0,
        "meta_classification_type": "U",
        "meta_norad_cat_id": 45358,
        "meta_element_set_no": 999,
        "meta_rev_at_epoch": 4459,
        "meta_bstar": 0,
        "meta_mean_motion_dot": -5e-07,
        "meta_mean_motion_ddot": 0,
        "tle_line1": "1 45358U 20018A   25342.23569333 -.00000050  00000+0  00000+0 0  9990",
        "tle_line2": "2 45358  64.4721 319.1278 0011723 249.0767 110.7922  2.13102411 44590"
      },
      "geometry": {
        "type": "Point",
        "coordinates": [
          33.943270538234366,
          63.666519586327965
        ]
      }
    },
    {
      "type": "Feature",
      "properties": {
        "norad_id": 45807,
        "name": "BEIDOU-3 G3 (C61)",
        "group": "gnss",
        "lat": 1.6335273887350228,
        "lon": 121.32680009277108,
        "alt_km": 35792.664708101925,
        "timestamp": "2025-12-08T19:31:49.056111+00:00",
        "meta_object_name": "BEIDOU-3 G3 (C61)",
        "meta_object_id": "2020-040A",
        "meta_epoch": "2025-12-08T07:16:51.079872",
        "meta_mean_motion": 1.00275991,
        "meta_eccentricity": 0.00059988,
        "meta_inclination": 1.9803,
        "meta_ra_of_asc_node": 66.5831,
        "meta_arg_of_pericenter": 306.2747,
        "meta_mean_anomaly": 284.1701,
        "meta_ephemeris_type": 0,
        "meta_classification_type": "U",
        "meta_norad_cat_id": 45807,
        "meta_element_set_no": 999,
        "meta_rev_at_epoch": 2015,
        "meta_bstar": 0,
        "meta_mean_motion_dot": -3.52e-06,
        "meta_mean_motion_ddot": 0,
        "tle_line1": "1 45807U 20040A   25342.30336898 -.00000352  00000+0  00000+0 0  9995",
        "tle_line2": "2 45807   1.9803  66.5831 0005998 306.2747 284.1701  1.00275991 20151"
      },
      "geometry": {
        "type": "Point",
        "coordinates": [
          121.32680009277108,
          1.6335273887350228
        ]
      }
    },
    {
      "type": "Feature",
      "properties": {
        "norad_id": 45854,
        "name": "GPS BIII-3  (PRN 23)",
        "group": "gnss",
        "lat": 24.354596403595096,
        "lon": 53.757320732811195,
        "alt_km": 20338.98980918635,
        "timestamp": "2025-12-08T19:31:49.056122+00:00",
        "meta_object_name": "GPS BIII-3  (PRN 23)",
        "meta_object_id": "2020-041A",
        "meta_epoch": "2025-12-07T06:57:27.444672",
        "meta_mean_motion": 2.00561718,
        "meta_eccentricity": 0.00603563,
        "meta_inclination": 56.5433,
        "meta_ra_of_asc_node": 36.3977,
        "meta_arg_of_pericenter": 203.2104,
        "meta_mean_anomaly": 166.2515,
        "meta_ephemeris_type": 0,
        "meta_classification_type": "U",
        "meta_norad_cat_id": 45854,
        "meta_element_set_no": 999,
        "meta_rev_at_epoch": 4019,
        "meta_bstar": 0,
        "meta_mean_motion_dot": -7.4e-07,
        "meta_mean_motion_ddot": 0,
        "tle_line1": "1 45854U 20041A   25341.28990098 -.00000074  00000+0  00000+0 0  9993",
        "tle_line2": "2 45854  56.5433  36.3977 0060356 203.2104 166.2515  2.00561718 40191"
      },
      "geometry": {
        "type": "Point",
        "coordinates": [
          53.757320732811195,
          24.354596403595096
        ]
      }
    },
    {
      "type": "Feature",
      "properties": {
        "norad_id": 46114,
        "name": "GALAXY 30 (WAAS/PRN 135)",
        "group": "gnss",
        "lat": -0.037740327468895274,
        "lon": -114.24526838820401,
        "alt_km": 35776.117522023334,
        "timestamp": "2025-12-08T19:31:49.056134+00:00",
        "meta_object_name": "GALAXY 30 (WAAS/PRN 135)",
        "meta_object_id": "2020-056C",
        "meta_epoch": "2025-12-08T05:46:43.301280",
        "meta_mean_motion": 1.00270993,
        "meta_eccentricity": 0.0002437,
        "meta_inclination": 0.017,
        "meta_ra_of_asc_node": 351.6835,
        "meta_arg_of_pericenter": 264.3869,
        "meta_mean_anomaly": 142.8564,
        "meta_ephemeris_type": 0,
        "meta_classification_type": "U",
        "meta_norad_cat_id": 46114,
        "meta_element_set_no": 999,
        "meta_rev_at_epoch": 1937,
        "meta_bstar": 0,
        "meta_mean_motion_dot": 3.9e-07,
        "meta_mean_motion_ddot": 0,
        "tle_line1": "1 46114U 20056C   25342.24077895  .00000039  00000+0  00000+0 0  9997",
        "tle_line2": "2 46114   0.0170 351.6835 0002437 264.3869 142.8564  1.00270993 19372"
      },
      "geometry": {
        "type": "Point",
        "coordinates": [
          -114.24526838820401,
          -0.037740327468895274
        ]
      }
    },
    {
      "type": "Feature",
      "properties": {
        "norad_id": 46805,
        "name": "COSMOS 2547 (705K)",
        "group": "gnss",
        "lat": -52.01526583196166,
        "lon": 161.34007830819252,
        "alt_km": 19130.631879698998,
        "timestamp": "2025-12-08T19:31:49.056144+00:00",
        "meta_object_name": "COSMOS 2547 (705K)",
        "meta_object_id": "2020-075A",
        "meta_epoch": "2025-12-07T22:54:27.999936",
        "meta_mean_motion": 2.13099949,
        "meta_eccentricity": 0.00062185,
        "meta_inclination": 64.596,
        "meta_ra_of_asc_node": 198.8564,
        "meta_arg_of_pericenter": 228.8188,
        "meta_mean_anomaly": 131.2072,
        "meta_ephemeris_type": 0,
        "meta_classification_type": "U",
        "meta_norad_cat_id": 46805,
        "meta_element_set_no": 999,
        "meta_rev_at_epoch": 3983,
        "meta_bstar": 0,
        "meta_mean_motion_dot": 5.3e-07,
        "meta_mean_motion_ddot": 0,
        "tle_line1": "1 46805U 20075A   25341.95449074  .00000053  00000+0  00000+0 0  9990",
        "tle_line2": "2 46805  64.5960 198.8564 0006218 228.8188 131.2072  2.13099949 39835"
      },
      "geometry": {
        "type": "Point",
        "coordinates": [
          161.34007830819252,
          -52.01526583196166
        ]
      }
    },
    {
      "type": "Feature",
      "properties": {
        "norad_id": 46826,
        "name": "GPS BIII-4  (PRN 14)",
        "group": "gnss",
        "lat": 0.6799770597183837,
        "lon": -140.99635304458067,
        "alt_km": 20338.504159983284,
        "timestamp": "2025-12-08T19:31:49.056156+00:00",
        "meta_object_name": "GPS BIII-4  (PRN 14)",
        "meta_object_id": "2020-078A",
        "meta_epoch": "2025-11-12T03:01:29.191584",
        "meta_mean_motion": 2.00567032,
        "meta_eccentricity": 0.00639112,
        "meta_inclination": 54.0223,
        "meta_ra_of_asc_node": 219.5836,
        "meta_arg_of_pericenter": 203.4986,
        "meta_mean_anomaly": 326.7753,
        "meta_ephemeris_type": 0,
        "meta_classification_type": "U",
        "meta_norad_cat_id": 46826,
        "meta_element_set_no": 999,
        "meta_rev_at_epoch": 3715,
        "meta_bstar": 0,
        "meta_mean_motion_dot": -3.4e-07,
        "meta_mean_motion_ddot": 0,
        "tle_line1": "1 46826U 20078A   25316.12603231 -.00000034  00000+0  00000+0 0  9994",
        "tle_line2": "2 46826  54.0223 219.5836 0063911 203.4986 326.7753  2.00567032 37154"
      },
      "geometry": {
        "type": "Point",
        "coordinates": [
          -140.99635304458067,
          0.6799770597183837
        ]
      }
    },
    {
      "type": "Feature",
      "properties": {
        "norad_id": 48859,
        "name": "GPS BIII-5  (PRN 11)",
        "group": "gnss",
        "lat": -4.939282298943636,
        "lon": 163.5450670713226,
        "alt_km": 20139.450597858588,
        "timestamp": "2025-12-08T19:31:49.056166+00:00",
        "meta_object_name": "GPS BIII-5  (PRN 11)",
        "meta_object_id": "2021-054A",
        "meta_epoch": "2025-11-30T17:12:22.002912",
        "meta_mean_motion": 2.00553932,
        "meta_eccentricity": 0.0024653,
        "meta_inclination": 55.2606,
        "meta_ra_of_asc_node": 340.4377,
        "meta_arg_of_pericenter": 232.9477,
        "meta_mean_anomaly": 227.2059,
        "meta_ephemeris_type": 0,
        "meta_classification_type": "U",
        "meta_norad_cat_id": 48859,
        "meta_element_set_no": 999,
        "meta_rev_at_epoch": 3277,
        "meta_bstar": 0,
        "meta_mean_motion_dot": -5.5e-07,
        "meta_mean_motion_ddot": 0,
        "tle_line1": "1 48859U 21054A   25334.71692133 -.00000055  00000+0  00000+0 0  9994",
        "tle_line2": "2 48859  55.2606 340.4377 0024653 232.9477 227.2059  2.00553932 32777"
      },
      "geometry": {
        "type": "Point",
        "coordinates": [
          163.5450670713226,
          -4.939282298943636
        ]
      }
    }
  ]
}